#cP2017  5 13  0  0  0.00000000      96 ORBIT IGS14 HLM  IGS
## 1948 518400.00000000   900.00000000 57886 0.0000000000000
+   31   G01G02G03G05G06G07G08G09G10G11G12G13G14G15G16G17G18
+        G19G20G21G22G23G24G25G26G27G28G29G30G31G32  0  0  0
+          0  0  0  0  0  0  0  0  0  0  0  0  0  0  0  0  0
+          0  0  0  0  0  0  0  0  0  0  0  0  0  0  0  0  0
+          0  0  0  0  0  0  0  0  0  0  0  0  0  0  0  0  0
++         2  2  2  2  2  2  2  2  2  2  3  2  2  2  2  2  2
++         2  2  2  2  2  2  2  2  2  2  2  2  2  2  0  0  0
++         0  0  0  0  0  0  0  0  0  0  0  0  0  0  0  0  0
++         0  0  0  0  0  0  0  0  0  0  0  0  0  0  0  0  0
++         0  0  0  0  0  0  0  0  0  0  0  0  0  0  0  0  0
%c G  cc GPS ccc cccc cccc cccc cccc ccccc ccccc ccccc ccccc
%c cc cc ccc ccc cccc cccc cccc cccc ccccc ccccc ccccc ccccc
%f  1.2500000  1.025000000  0.00000000000  0.000000000000000
%f  0.0000000  0.000000000  0.00000000000  0.000000000000000
%i    0    0    0    0      0      0      0      0         0
%i    0    0    0    0      0      0      0      0         0
/* RAPID ORBIT COMBINATION FROM WEIGHTED AVERAGE OF:        
/* cod emr esa gfz jpl ngs sio usn whu                      
/* REFERENCED TO IGS TIME (IGST) AND TO WEIGHTED MEAN POLE: 
/* PCV:IGS14_1930 OL/AL:FES2004  NONE     Y  ORB:CMB CLK:CMB
*  2017  5 13 12  0  0.00000000
PG01 -20484.461554 -10570.169226  13322.429809     54.598008  6  5  3  54       
PG02  13838.864353  22095.879082   6408.620301    420.560270 10  2  4 102       
PG03 -15902.564859    -40.839457  21268.052964   -100.658845  6  7  3  97       
PG05   5519.998356  20022.613389 -16521.654619    -46.235626  9  8  7 104       
PG06   1062.490853  20058.354588  17393.068876    350.300148  6  7  7 107       
PG07 -16176.534122   2871.400193 -20782.580616    351.959809  8  7  2 125       
PG08 -20558.099732  -7046.623238 -15281.263436    -59.577265  6  5  6 103       
PG09 -24622.961853   8343.842769  -5490.199176    362.345375 10  3  8 102       
PG10  10566.032493 -24202.573895  -2157.557997    -54.837182  7  4  6  92       
PG11 -24286.111967 -10035.001214   3080.675314   -687.803167  9  4  6 120       
PG12  12987.863546   6521.729796  22071.443390    383.663263  9  6  8  78       
PG13  13622.307974  12473.696178 -19185.507315    -81.625045  1  6  4 110       
PG14   3762.686222 -15406.450996  21554.486549    -70.549844  6  3  6  99       
PG15  23417.218652   3889.863647 -12448.436034   -349.816240  9  8  5  98       
PG16  -2661.879845 -20372.381847 -16725.272273     33.169521  8  6  7 113       
PG17 -13547.405963  13999.076362  18338.413106   -179.826891  7  3  5 103       
PG18  14515.966291 -19144.582968 -10515.604090    615.237331  8  8  6 100       
PG19  -5875.749909  14690.479270  21111.001363   -503.841274  6  6  4  90       
PG20  15214.009684   5086.227937 -21312.927264    472.035630  4  6  4  95       
PG21  12062.224739  -9449.018609 -20917.224318   -507.267144  7  7  6 121       
PG22 -13035.523055 -10711.333627  20752.578616     11.444471  7  8  6  82       
PG23 -26159.493520    181.097181   6033.708977   -211.695970 10  7  6 108       
PG24  21098.712847  12176.893455  10781.967823    -34.763433  9  3  6 111       
PG25  16657.749398  -9546.656417  18103.668289   -386.453910  8  7  7 114       
PG26   3419.251781 -25186.636447  -7556.341530   -504.836628  6     7  93       
PG27  -9339.960709 -13021.568555 -21271.585632    256.878039  4  3  5 109       
PG28 -13541.935976  22329.493002  -4203.244102    612.432014  7  3  6  97       
PG29  25960.026443  -4746.711968  -2843.486531    604.677391  8  5  6 107       
PG30  -7035.128166  15323.595087 -20497.969601    156.956627  9  6  5 113       
PG31  -2039.514636 -20847.999366  16159.664892    201.380503  5  5  4  91       
PG32  12089.105382 -15096.048174  18203.045782   -412.406868  5  5  6 102       
*  2017  5 13 12 15  0.00000000
PG01 -21263.890844 -11740.658870  10951.798136     54.598447  7  4  3  77       
PG02  13093.529504  21680.334179   9032.366238    420.553428  9  2  5  90       
PG03 -15153.596760  -2382.584553  21680.158285   -100.657222  6  7  2  68       
PG05   4776.061751  21649.364332 -14558.389517    -46.234052  9  8  8 103       
PG06   -413.830180  18593.151673  18979.816427    350.304704  7  7  7 109       
PG07 -17635.772603   1033.147262 -19790.308340    351.956063  8  7    128       
PG08 -18768.567016  -7584.561442 -17191.369797    -59.578543  5  4  5 113       
PG09 -25135.002301   8177.606088  -2700.177121    362.352495 10  3  8  93       
PG10  10686.433950 -23727.215335  -4978.626717    -54.828462  7  4  6 103       
PG11 -24330.477028 -10533.606665    355.326632   -687.805283 10  4  6 123       
PG12  12032.284506   8872.724556  21811.902467    383.662826  8  6  7  79       
PG13  11396.189890  12757.984344 -20422.051083    -81.625558  3  5  4  91       
PG14   6123.533201 -15629.430157  20816.301007    -70.551034  6  2  7  98       
PG15  22019.007599   4524.976385 -14593.579031   -349.816935  9  7  5  84       
PG16  -1834.394810 -21958.947000 -14651.477819     33.170259  8  6  7 107       
PG17 -15478.076978  14170.362684  16543.404090   -179.825120  7  3  6 104       
PG18  14431.621028 -17679.622290 -12834.811202    615.239103  8  7  6  88       
PG19  -8277.659089  14880.725691  20188.534476   -503.839995  6  6  4  90       
PG20  14635.157640   7421.127464 -21029.812239    472.036659  3  6  4  90       
PG21  13797.002147  -7579.874648 -20625.313925   -507.265464  5  7  5  84       
PG22 -12301.053547 -12886.156636  19933.140548     11.433807  8  8  6  85       
PG23 -25422.921198   -225.726586   8665.210469   -211.696865  9  7  6 107       
PG24  21666.001083  13148.222453   8261.142993    -34.764555  9  3  6 113       
PG25  16067.600046  -7436.647579  19574.587465   -386.459800  8  7  6 114       
PG26   3881.793348 -25782.700811  -4818.314523   -504.832892  6     7 100       
PG27  -6948.881656 -13548.784162 -21832.503979    256.883980  4  4  5 104       
PG28 -13425.075423  21602.446252  -7017.309229    612.435107  8  4  6  96       
PG29  26145.458684  -4572.377176     48.830486    604.674727  9  4  6 100       
PG30  -8567.729613  13486.326781 -21205.761963    156.955818  8  6  4 104       
PG31   -666.528105 -19449.399926  17961.978085    201.378249  4  5  3  78       
PG32  14063.646977 -15345.951929  16489.202644   -412.416326  6  4  6 101       
*  2017  5 13 12 30  0.00000000
PG01 -21909.709538 -12667.605404   8394.444584     54.598907  7  3  3  68       
PG02  12122.311000  21110.829265  11506.321003    420.546360  8  3  5  80       
PG03 -14520.462686  -4784.363140  21719.137529   -100.655635  6  7  3  90       
PG05   4171.199514  23083.278183 -12343.531109    -46.232366  8  7  8 107       
PG06  -2079.602286  17094.559910  20240.426400    350.309284  7  7  6 107       
PG07 -19095.873414   -626.691696 -18456.251000    351.952479  8  7    124       
PG08 -16816.761260  -8270.307984 -18805.562226    -59.579316  4  4  5 118       
PG09 -25348.137384   7953.433266    136.268029    362.359612 10  3  7 103       
PG10  10749.342168 -22954.062690  -7713.368731    -54.819810  7  4  6 110       
PG11 -24115.349933 -10906.341094  -2376.223147   -687.807848 10  5  6 110       
PG12  11227.395089  11222.731758  21172.080160    383.661756  8  6  7  82       
PG13   9070.835352  13178.471461 -21310.336954    -81.627100  4  4  3 109       
PG14   8371.036549 -15958.680063  19727.140501    -70.552395  6  3  7 102       
PG15  20438.876513   5299.409069 -16494.254840   -349.817577  9  6  5 110       
PG16  -1178.882093 -23354.841483 -12322.746886     33.170928  9  5  7  99       
PG17 -17186.934556  14402.060897  14468.842621   -179.823277  8  2  6  97       
PG18  14358.949110 -15962.486161 -14923.456488    615.240703  8  7  6 102       
PG19 -10537.957573  15180.670238  18912.758936   -503.838871  6  5  4  95       
PG20  14175.551348   9729.980068 -20389.445747    472.038211  4  5  4 107       
PG21  15573.820702  -5834.061518 -19952.795900   -507.263547  4  7  4  86       
PG22 -11692.685653 -14986.940230  18777.329625     11.422881  8  8  7 105       
PG23 -24432.860263   -743.248622  11152.506837   -211.696961  8  8  6 105       
PG24  22069.618645  13888.171241   5599.646102    -34.764347  8  3  6 114       
PG25  15553.106976  -5155.467204  20702.291567   -386.465632  8  7  6 113       
PG26   4233.986829 -26096.642503  -1996.933159   -504.829170  6     7 105       
PG27  -4547.372327 -14217.368999 -22020.193760    256.889897  4  4  5 107       
PG28 -13245.650124  20569.163392  -9708.114480    612.437944  8  5  6 102       
PG29  26018.462153  -4342.597980   2940.306362    604.671439  9  3  6 109       
PG30 -10228.630401  11684.383596 -21548.306831    156.955037  8  7  4 102       
PG31    903.049814 -17989.828753  19452.513275    201.376007  3  5  2 105       
PG32  15820.321053 -15642.545253  14491.442898   -412.425787  7  4  7 111       
EOF
